ONEWEB-0116             
1 48046U 21025E   25276.56048318  .00000382  00000+0  10123-2 0  9990
2 48046  87.9055  11.1953 0001692 100.1012 260.0308 13.13469618219969
ONEWEB-0150             
1 48047U 21025F   25276.53678036 -.00000155  00000+0 -45969-3 0  9991
2 48047  87.9051  11.1947 0001976  96.0151 264.1203 13.13469322219850
ONEWEB-0107             
1 48048U 21025G   25277.52878844 -.00000197  00000+0 -57331-3 0  9993
2 48048  87.9055  10.9956 0002147 104.0136 256.1232 13.13470772219962
ONEWEB-0101             
1 48049U 21025H   25277.49154844  .00000329  00000+0  86630-3 0  9996
2 48049  87.9049  11.0414 0001888 105.5606 254.5732 13.13469074219933
ONEWEB-0113             
1 48050U 21025J   25277.53481872 -.00000105  00000+0 -32111-3 0  9996
2 48050  87.9049  10.9699 0001666  93.4788 266.6532 13.13979874220037
ONEWEB-0112             
1 48051U 21025K   25277.53386749 -.00000120  00000+0 -36325-3 0  9992
2 48051  87.9052  10.9914 0001901  98.5020 261.6324 13.13470308220031
ONEWEB-0156             
1 48052U 21025L   25277.54232917  .00000090  00000+0  21129-3 0  9991
2 48052  87.9052  11.0018 0001981  99.8399 260.2954 13.13469372220011
ONEWEB-0161             
1 48053U 21025M   25277.51692588 -.00000190  00000+0 -55397-3 0  9990
2 48053  87.9052  11.0259 0002043 100.8442 259.2917 13.13469066219948
